{
  "norad_id": 45227,
  "name": "STARLINK-1221",
  "history": [
    {
      "epoch": "2026-03-28T15:20:46.224096Z",
      "apogee_km": 440.870085170769,
      "perigee_km": 435.86908694884096,
      "latitude_deg": 5.161371199355621e-05,
      "longitude_deg": 123.5207574163218,
      "height_km": 438.48480663625844,
      "semi_major_axis_km": 6816.506586059805,
      "eccentricity": 0.00036683,
      "inclination_deg": 53.0652,
      "raan_deg": 179.7703,
      "arg_perigee_deg": 71.9666,
      "mean_anomaly_deg": 288.1739,
      "mean_motion_rev_day": 15.4262361
    },
    {
      "epoch": "2026-03-28T23:07:14.321280Z",
      "apogee_km": 440.8406600820181,
      "perigee_km": 435.8210131671276,
      "latitude_deg": 2.2851306929891887e-06,
      "longitude_deg": 5.047262615633919,
      "height_km": 438.5022123291932,
      "semi_major_axis_km": 6816.467836624573,
      "eccentricity": 0.0003682,
      "inclination_deg": 53.0651,
      "raan_deg": 178.2332,
      "arg_perigee_deg": 73.3801,
      "mean_anomaly_deg": 286.7608,
      "mean_motion_rev_day": 15.42636764
    },
    {
      "epoch": "2026-03-30T06:13:04.130112Z",
      "apogee_km": 440.7172071125069,
      "perigee_km": 435.59680705438586,
      "latitude_deg": 2.5563577904822137e-05,
      "longitude_deg": -108.83317134415525,
      "height_km": 438.41103165842077,
      "semi_major_axis_km": 6816.294007083447,
      "eccentricity": 0.0003756,
      "inclination_deg": 53.0658,
      "raan_deg": 172.0874,
      "arg_perigee_deg": 75.6364,
      "mean_anomaly_deg": 284.5058,
      "mean_motion_rev_day": 15.42695775
    },
    {
      "epoch": "2026-03-30T12:26:13.587648Z",
      "apogee_km": 440.6555582113306,
      "perigee_km": 435.58617091229826,
      "latitude_deg": 1.6960566040473154e-05,
      "longitude_deg": 156.3928988052371,
      "height_km": 438.3643389581675,
      "semi_major_axis_km": 6816.257864561814,
      "eccentricity": 0.00037186,
      "inclination_deg": 53.0654,
      "raan_deg": 170.8583,
      "arg_perigee_deg": 75.2414,
      "mean_anomaly_deg": 284.9003,
      "mean_motion_rev_day": 15.42708045
    },
    {
      "epoch": "2026-03-31T14:52:06.937536Z",
      "apogee_km": 440.51973106073274,
      "perigee_km": 435.44036063816566,
      "latitude_deg": 5.809554976190343e-05,
      "longitude_deg": 113.61013722183321,
      "height_km": 438.28477143861716,
      "semi_major_axis_km": 6816.117045849449,
      "eccentricity": 0.0003726,
      "inclination_deg": 53.0656,
      "raan_deg": 165.6333,
      "arg_perigee_deg": 76.6958,
      "mean_anomaly_deg": 283.4463,
      "mean_motion_rev_day": 15.42755853
    },
    {
      "epoch": "2026-04-01T11:04:49.352448Z",
      "apogee_km": 440.4288862568419,
      "perigee_km": 435.3523089021646,
      "latitude_deg": 3.642914815413857e-05,
      "longitude_deg": 165.6065249399667,
      "height_km": 438.26148484567943,
      "semi_major_axis_km": 6816.027597579503,
      "eccentricity": 0.0003724,
      "inclination_deg": 53.0652,
      "raan_deg": 161.6365,
      "arg_perigee_deg": 78.2198,
      "mean_anomaly_deg": 281.9225,
      "mean_motion_rev_day": 15.42786222
    },
    {
      "epoch": "2026-04-02T13:30:37.702368Z",
      "apogee_km": 440.314214742084,
      "perigee_km": 435.1660464278111,
      "latitude_deg": -2.2471340698339364e-06,
      "longitude_deg": 122.8435935602322,
      "height_km": 438.14992158768194,
      "semi_major_axis_km": 6815.877130584947,
      "eccentricity": 0.00037766,
      "inclination_deg": 53.065,
      "raan_deg": 156.4105,
      "arg_perigee_deg": 79.271,
      "mean_anomaly_deg": 280.872,
      "mean_motion_rev_day": 15.4283731
    },
    {
      "epoch": "2026-04-02T21:17:01.814784Z",
      "apogee_km": 440.26055766224636,
      "perigee_km": 435.083950533759,
      "latitude_deg": 3.438770776388699e-05,
      "longitude_deg": 4.387312036173557,
      "height_km": 438.08519239532916,
      "semi_major_axis_km": 6815.809254098002,
      "eccentricity": 0.00037975,
      "inclination_deg": 53.0646,
      "raan_deg": 154.8739,
      "arg_perigee_deg": 79.4033,
      "mean_anomaly_deg": 280.74,
      "mean_motion_rev_day": 15.42860357
    },
    {
      "epoch": "2026-04-03T12:49:49.116864Z",
      "apogee_km": 440.15489969951886,
      "perigee_km": 434.9955418626332,
      "latitude_deg": 5.111866331125676e-05,
      "longitude_deg": 127.47806163327759,
      "height_km": 438.0293089397092,
      "semi_major_axis_km": 6815.712220781076,
      "eccentricity": 0.00037849,
      "inclination_deg": 53.064,
      "raan_deg": 151.8002,
      "arg_perigee_deg": 80.2972,
      "mean_anomaly_deg": 279.8461,
      "mean_motion_rev_day": 15.42893305
    },
    {
      "epoch": "2026-04-04T12:08:57.789024Z",
      "apogee_km": 440.0088954696139,
      "perigee_km": 434.8604126421387,
      "latitude_deg": -1.0887671232705038e-05,
      "longitude_deg": 132.12260035413078,
      "height_km": 437.9935324620773,
      "semi_major_axis_km": 6815.571654055876,
      "eccentricity": 0.0003777,
      "inclination_deg": 53.0632,
      "raan_deg": 147.1886,
      "arg_perigee_deg": 82.6371,
      "mean_anomaly_deg": 277.5063,
      "mean_motion_rev_day": 15.42941037
    },
    {
      "epoch": "2026-04-05T09:54:47.795616Z",
      "apogee_km": 439.9103549015299,
      "perigee_km": 434.73796511797536,
      "latitude_deg": -2.4366516861209085e-05,
      "longitude_deg": 160.46671703605315,
      "height_km": 437.93858321228424,
      "semi_major_axis_km": 6815.461160009752,
      "eccentricity": 0.00037946,
      "inclination_deg": 53.0634,
      "raan_deg": 142.8849,
      "arg_perigee_deg": 83.9106,
      "mean_anomaly_deg": 276.2331,
      "mean_motion_rev_day": 15.42978559
    },
    {
      "epoch": "2026-04-06T03:00:47.324736Z",
      "apogee_km": 439.80405807927855,
      "perigee_km": 434.6981056361119,
      "latitude_deg": -2.4655570835737434e-05,
      "longitude_deg": -100.1167892168672,
      "height_km": 437.90051658321926,
      "semi_major_axis_km": 6815.3880818576945,
      "eccentricity": 0.00037459,
      "inclination_deg": 53.0635,
      "raan_deg": 139.5017,
      "arg_perigee_deg": 84.6187,
      "mean_anomaly_deg": 275.5245,
      "mean_motion_rev_day": 15.43003376
    },
    {
      "epoch": "2026-04-07T11:39:27.223200Z",
      "apogee_km": 439.6811683857786,
      "perigee_km": 434.5570499275491,
      "latitude_deg": 1.4249168490975557e-06,
      "longitude_deg": 122.42042455116486,
      "height_km": 437.85159271574867,
      "semi_major_axis_km": 6815.256109156664,
      "eccentricity": 0.00037593,
      "inclination_deg": 53.0641,
      "raan_deg": 133.0458,
      "arg_perigee_deg": 86.4999,
      "mean_anomaly_deg": 273.6436,
      "mean_motion_rev_day": 15.43048195
    },
    {
      "epoch": "2026-04-07T19:25:47.697312Z",
      "apogee_km": 439.6905073351636,
      "perigee_km": 434.4973013860408,
      "latitude_deg": 6.503254245043381e-05,
      "longitude_deg": 3.97876312256092,
      "height_km": 437.86845481133594,
      "semi_major_axis_km": 6815.230904360602,
      "eccentricity": 0.000381,
      "inclination_deg": 53.0643,
      "raan_deg": 131.5086,
      "arg_perigee_deg": 87.4778,
      "mean_anomaly_deg": 272.6664,
      "mean_motion_rev_day": 15.43056755
    },
    {
      "epoch": "2026-04-08T10:58:28.088256Z",
      "apogee_km": 439.63140248856234,
      "perigee_km": 434.44491788815594,
      "latitude_deg": -5.375701058919819e-08,
      "longitude_deg": 127.09722478342995,
      "height_km": 437.87780216170427,
      "semi_major_axis_km": 6815.175160188359,
      "eccentricity": 0.00038051,
      "inclination_deg": 53.0642,
      "raan_deg": 128.4338,
      "arg_perigee_deg": 88.9132,
      "mean_anomaly_deg": 271.2309,
      "mean_motion_rev_day": 15.43075687
    },
    {
      "epoch": "2026-04-09T08:44:11.656320Z",
      "apogee_km": 439.5710581337098,
      "perigee_km": 434.3667706532424,
      "latitude_deg": 3.4313739890870124e-05,
      "longitude_deg": 155.46787636091855,
      "height_km": 437.89527262273936,
      "semi_major_axis_km": 6815.105914393475,
      "eccentricity": 0.00038182,
      "inclination_deg": 53.0644,
      "raan_deg": 124.1297,
      "arg_perigee_deg": 90.8264,
      "mean_anomaly_deg": 269.3179,
      "mean_motion_rev_day": 15.43099205
    },
    {
      "epoch": "2026-04-10T08:03:09.781632Z",
      "apogee_km": 439.47902302676994,
      "perigee_km": 434.2846156826581,
      "latitude_deg": -2.3351250688592403e-05,
      "longitude_deg": 160.15638171183937,
      "height_km": 437.9002356359355,
      "semi_major_axis_km": 6815.018819354714,
      "eccentricity": 0.0003811,
      "inclination_deg": 53.0644,
      "raan_deg": 119.518,
      "arg_perigee_deg": 92.8591,
      "mean_anomaly_deg": 267.285,
      "mean_motion_rev_day": 15.43128786
    },
    {
      "epoch": "2026-04-11T18:14:56.255712Z",
      "apogee_km": 439.3420734739748,
      "perigee_km": 434.1927317073769,
      "latitude_deg": 3.495714910171748e-05,
      "longitude_deg": -0.9565092537937643,
      "height_km": 437.87300776648743,
      "semi_major_axis_km": 6814.904402590675,
      "eccentricity": 0.0003778,
      "inclination_deg": 53.0648,
      "raan_deg": 112.7531,
      "arg_perigee_deg": 94.8263,
      "mean_anomaly_deg": 265.3174,
      "mean_motion_rev_day": 15.43167648
    },
    {
      "epoch": "2026-04-12T17:33:50.841216Z",
      "apogee_km": 439.301490359574,
      "perigee_km": 434.1192078414242,
      "latitude_deg": 5.006772849263938e-06,
      "longitude_deg": 3.7463083033534206,
      "height_km": 437.90101257192674,
      "semi_major_axis_km": 6814.847349100499,
      "eccentricity": 0.00038022,
      "inclination_deg": 53.0644,
      "raan_deg": 108.1409,
      "arg_perigee_deg": 96.6871,
      "mean_anomaly_deg": 263.4567,
      "mean_motion_rev_day": 15.43187027
    }
  ]
}